[{"OBJECT_NAME":"SALSAT","OBJECT_ID":"2020-068K","EPOCH":"2026-03-09T22:26:21.804576","MEAN_MOTION":15.28191989,"ECCENTRICITY":0.00082652,"INCLINATION":97.8859,"RA_OF_ASC_NODE":66.0795,"ARG_OF_PERICENTER":295.8051,"MEAN_ANOMALY":64.2334,"EPHEMERIS_TYPE":0,"CLASSIFICATION_TYPE":"U","NORAD_CAT_ID":46495,"ELEMENT_SET_NO":999,"REV_AT_EPOCH":30019,"BSTAR":0.00040842582,"MEAN_MOTION_DOT":0.00011156,"MEAN_MOTION_DDOT":0},{"OBJECT_NAME":"STARLINK-32592","OBJECT_ID":"2024-216D","EPOCH":"2026-03-09T21:43:12.180576","MEAN_MOTION":15.27601841,"ECCENTRICITY":0.00017753,"INCLINATION":43.0007,"RA_OF_ASC_NODE":262.4547,"ARG_OF_PERICENTER":283.7388,"MEAN_ANOMALY":76.3266,"EPHEMERIS_TYPE":0,"CLASSIFICATION_TYPE":"U","NORAD_CAT_ID":62035,"ELEMENT_SET_NO":999,"REV_AT_EPOCH":7383,"BSTAR":0.00099861211,"MEAN_MOTION_DOT":0.00027338,"MEAN_MOTION_DDOT":0}]
